[{"OBJECT_NAME":"STARLINK-30069","OBJECT_ID":"2023-079M","EPOCH":"2026-03-08T11:34:15.947328","MEAN_MOTION":15.26726881,"ECCENTRICITY":4.69e-5,"INCLINATION":42.9986,"RA_OF_ASC_NODE":110.4464,"ARG_OF_PERICENTER":272.6695,"MEAN_ANOMALY":87.4103,"EPHEMERIS_TYPE":0,"CLASSIFICATION_TYPE":"U","NORAD_CAT_ID":56834,"ELEMENT_SET_NO":999,"REV_AT_EPOCH":15274,"BSTAR":-8.0472e-5,"MEAN_MOTION_DOT":-2.416e-5,"MEAN_MOTION_DDOT":0},{"OBJECT_NAME":"STARLINK-33846","OBJECT_ID":"2025-091F","EPOCH":"2026-03-09T23:31:14.154816","MEAN_MOTION":15.27586198,"ECCENTRICITY":9.578e-5,"INCLINATION":42.9997,"RA_OF_ASC_NODE":51.1415,"ARG_OF_PERICENTER":191.9413,"MEAN_ANOMALY":168.1416,"EPHEMERIS_TYPE":0,"CLASSIFICATION_TYPE":"U","NORAD_CAT_ID":63780,"ELEMENT_SET_NO":999,"REV_AT_EPOCH":4899,"BSTAR":0.00089263105,"MEAN_MOTION_DOT":0.00024387,"MEAN_MOTION_DDOT":0}]
